{
  "type": "FeatureCollection",
  "features": [
    {
      "type": "Feature",
      "properties": {
        "norad_id": 30480,
        "name": "FENGYUN 1C DEB",
        "group": "fengyun-1c-debris",
        "lat": 8.74322992109952,
        "lon": -162.95650559828465,
        "alt_km": 738.4593894696964,
        "timestamp": "2025-12-27T16:33:30.499157+00:00",
        "meta_object_name": "FENGYUN 1C DEB",
        "meta_object_id": "1999-025AGS",
        "meta_epoch": "2025-12-27T00:49:23.762784",
        "meta_mean_motion": 14.33619523,
        "meta_eccentricity": 0.01667832,
        "meta_inclination": 98.2232,
        "meta_ra_of_asc_node": 15.1457,
        "meta_arg_of_pericenter": 103.1876,
        "meta_mean_anomaly": 284.289,
        "meta_ephemeris_type": 0,
        "meta_classification_type": "U",
        "meta_norad_cat_id": 30480,
        "meta_element_set_no": 999,
        "meta_rev_at_epoch": 98873,
        "meta_bstar": 0.00025280916,
        "meta_mean_motion_dot": 7.75e-06,
        "meta_mean_motion_ddot": 0,
        "tle_line1": "1 30480U 99025AGS 25361.03430281  .00000775  00000+0  25281-3 0  9997",
        "tle_line2": "2 30480  98.2232  15.1457 0166783 103.1876 284.2890 14.33619523988738"
      },
      "geometry": {
        "type": "Point",
        "coordinates": [
          -162.95650559828465,
          8.74322992109952
        ]
      }
    },
    {
      "type": "Feature",
      "properties": {
        "norad_id": 30481,
        "name": "FENGYUN 1C DEB",
        "group": "fengyun-1c-debris",
        "lat": -34.90361684981707,
        "lon": -167.28109337735486,
        "alt_km": 608.2454848404968,
        "timestamp": "2025-12-27T16:33:30.499168+00:00",
        "meta_object_name": "FENGYUN 1C DEB",
        "meta_object_id": "1999-025AGT",
        "meta_epoch": "2025-12-27T00:48:10.118880",
        "meta_mean_motion": 14.39094274,
        "meta_eccentricity": 0.02233206,
        "meta_inclination": 98.3364,
        "meta_ra_of_asc_node": 17.952,
        "meta_arg_of_pericenter": 216.8286,
        "meta_mean_anomaly": 199.2714,
        "meta_ephemeris_type": 0,
        "meta_classification_type": "U",
        "meta_norad_cat_id": 30481,
        "meta_element_set_no": 999,
        "meta_rev_at_epoch": 98689,
        "meta_bstar": 0.00051565462,
        "meta_mean_motion_dot": 2.083e-05,
        "meta_mean_motion_ddot": 0,
        "tle_line1": "1 30481U 99025AGT 25361.03345045  .00002083  00000+0  51565-3 0  9999",
        "tle_line2": "2 30481  98.3364  17.9520 0223320 216.8286 199.2714 14.39094274986896"
      },
      "geometry": {
        "type": "Point",
        "coordinates": [
          -167.28109337735486,
          -34.90361684981707
        ]
      }
    },
    {
      "type": "Feature",
      "properties": {
        "norad_id": 30489,
        "name": "FENGYUN 1C DEB",
        "group": "fengyun-1c-debris",
        "lat": -77.83690071886701,
        "lon": 152.12436917098043,
        "alt_km": 768.6859745513293,
        "timestamp": "2025-12-27T16:33:30.499178+00:00",
        "meta_object_name": "FENGYUN 1C DEB",
        "meta_object_id": "1999-025AHB",
        "meta_epoch": "2025-12-27T06:55:40.393344",
        "meta_mean_motion": 14.15837308,
        "meta_eccentricity": 0.0139293,
        "meta_inclination": 98.468,
        "meta_ra_of_asc_node": 15.4672,
        "meta_arg_of_pericenter": 222.8308,
        "meta_mean_anomaly": 153.2379,
        "meta_ephemeris_type": 0,
        "meta_classification_type": "U",
        "meta_norad_cat_id": 30489,
        "meta_element_set_no": 999,
        "meta_rev_at_epoch": 97593,
        "meta_bstar": 0.00027636,
        "meta_mean_motion_dot": 5.55e-06,
        "meta_mean_motion_ddot": 0,
        "tle_line1": "1 30489U 99025AHB 25361.28866196  .00000555  00000+0  27636-3 0  9993",
        "tle_line2": "2 30489  98.4680  15.4672 0139293 222.8308 153.2379 14.15837308975931"
      },
      "geometry": {
        "type": "Point",
        "coordinates": [
          152.12436917098043,
          -77.83690071886701
        ]
      }
    },
    {
      "type": "Feature",
      "properties": {
        "norad_id": 30490,
        "name": "FENGYUN 1C DEB",
        "group": "fengyun-1c-debris",
        "lat": 72.11688976078673,
        "lon": 108.14627808495916,
        "alt_km": 433.7216662261062,
        "timestamp": "2025-12-27T16:33:30.499189+00:00",
        "meta_object_name": "FENGYUN 1C DEB",
        "meta_object_id": "1999-025AHC",
        "meta_epoch": "2025-12-27T08:23:55.273056",
        "meta_mean_motion": 15.31567373,
        "meta_eccentricity": 0.0045173,
        "meta_inclination": 98.3274,
        "meta_ra_of_asc_node": 134.7623,
        "meta_arg_of_pericenter": 63.1654,
        "meta_mean_anomaly": 297.4193,
        "meta_ephemeris_type": 0,
        "meta_classification_type": "U",
        "meta_norad_cat_id": 30490,
        "meta_element_set_no": 999,
        "meta_rev_at_epoch": 99719,
        "meta_bstar": 0.0038199,
        "meta_mean_motion_dot": 0.00121832,
        "meta_mean_motion_ddot": 0,
        "tle_line1": "1 30490U 99025AHC 25361.34994529  .00121832  00000+0  38199-2 0  9991",
        "tle_line2": "2 30490  98.3274 134.7623 0045173  63.1654 297.4193 15.31567373997193"
      },
      "geometry": {
        "type": "Point",
        "coordinates": [
          108.14627808495916,
          72.11688976078673
        ]
      }
    },
    {
      "type": "Feature",
      "properties": {
        "norad_id": 30492,
        "name": "FENGYUN 1C DEB",
        "group": "fengyun-1c-debris",
        "lat": 13.743719572219192,
        "lon": -151.09272067809232,
        "alt_km": 772.4106482164416,
        "timestamp": "2025-12-27T16:33:30.499199+00:00",
        "meta_object_name": "FENGYUN 1C DEB",
        "meta_object_id": "1999-025AHE",
        "meta_epoch": "2025-12-27T00:55:16.006080",
        "meta_mean_motion": 14.52209249,
        "meta_eccentricity": 0.00940229,
        "meta_inclination": 102.3252,
        "meta_ra_of_asc_node": 24.8893,
        "meta_arg_of_pericenter": 24.3844,
        "meta_mean_anomaly": 336.1743,
        "meta_ephemeris_type": 0,
        "meta_classification_type": "U",
        "meta_norad_cat_id": 30492,
        "meta_element_set_no": 999,
        "meta_rev_at_epoch": 97102,
        "meta_bstar": 0.0036325808,
        "meta_mean_motion_dot": 0.00015571,
        "meta_mean_motion_ddot": 0,
        "tle_line1": "1 30492U 99025AHE 25361.03837970  .00015571  00000+0  36326-2 0  9997",
        "tle_line2": "2 30492 102.3252  24.8893 0094022  24.3844 336.1743 14.52209249971025"
      },
      "geometry": {
        "type": "Point",
        "coordinates": [
          -151.09272067809232,
          13.743719572219192
        ]
      }
    },
    {
      "type": "Feature",
      "properties": {
        "norad_id": 30493,
        "name": "FENGYUN 1C DEB",
        "group": "fengyun-1c-debris",
        "lat": -9.657139437363782,
        "lon": 9.461093739558237,
        "alt_km": 794.146536016694,
        "timestamp": "2025-12-27T16:33:30.499209+00:00",
        "meta_object_name": "FENGYUN 1C DEB",
        "meta_object_id": "1999-025AHF",
        "meta_epoch": "2025-12-27T07:53:02.959872",
        "meta_mean_motion": 13.93076788,
        "meta_eccentricity": 0.0180466,
        "meta_inclination": 98.5722,
        "meta_ra_of_asc_node": 190.5968,
        "meta_arg_of_pericenter": 176.3711,
        "meta_mean_anomaly": 1.1752,
        "meta_ephemeris_type": 0,
        "meta_classification_type": "U",
        "meta_norad_cat_id": 30493,
        "meta_element_set_no": 999,
        "meta_rev_at_epoch": 95298,
        "meta_bstar": 0.0027957,
        "meta_mean_motion_dot": 4.122e-05,
        "meta_mean_motion_ddot": 0,
        "tle_line1": "1 30493U 99025AHF 25361.32850648  .00004122  00000+0  27957-2 0  9997",
        "tle_line2": "2 30493  98.5722 190.5968 0180466 176.3711   1.1752 13.93076788952984"
      },
      "geometry": {
        "type": "Point",
        "coordinates": [
          9.461093739558237,
          -9.657139437363782
        ]
      }
    },
    {
      "type": "Feature",
      "properties": {
        "norad_id": 30494,
        "name": "FENGYUN 1C DEB",
        "group": "fengyun-1c-debris",
        "lat": 80.11193906965549,
        "lon": -73.48532868433558,
        "alt_km": 954.4435652772945,
        "timestamp": "2025-12-27T16:33:30.499219+00:00",
        "meta_object_name": "FENGYUN 1C DEB",
        "meta_object_id": "1999-025AHG",
        "meta_epoch": "2025-12-26T08:45:41.685984",
        "meta_mean_motion": 13.79412088,
        "meta_eccentricity": 0.0186272,
        "meta_inclination": 99.2815,
        "meta_ra_of_asc_node": 35.4794,
        "meta_arg_of_pericenter": 186.267,
        "meta_mean_anomaly": 173.6149,
        "meta_ephemeris_type": 0,
        "meta_classification_type": "U",
        "meta_norad_cat_id": 30494,
        "meta_element_set_no": 999,
        "meta_rev_at_epoch": 94674,
        "meta_bstar": 0.0013009,
        "meta_mean_motion_dot": 1.48e-05,
        "meta_mean_motion_ddot": 0,
        "tle_line1": "1 30494U 99025AHG 25360.36506581  .00001480  00000+0  13009-2 0  9992",
        "tle_line2": "2 30494  99.2815  35.4794 0186272 186.2670 173.6149 13.79412088946748"
      },
      "geometry": {
        "type": "Point",
        "coordinates": [
          -73.48532868433558,
          80.11193906965549
        ]
      }
    }
  ]
}